start=new Date('2021-08-23T00:00:00.000Z').valueOf();
sats=[{"MEAN_MOTION_DDOT":"0.0000000000000","REF_FRAME":"TEME","EPOCH":"2021-08-22T19:14:19.913568","SITE":"AFETR","FILE":"3101563","LAUNCH_DATE":"2021-05-26","ECCENTRICITY":"0.00011710","CLASSIFICATION_TYPE":"U","OBJECT_NAME":"STARLINK-2701","NORAD_CAT_ID":"48656","ARG_OF_PERICENTER":"120.9158","APOAPSIS":"548.023","OBJECT_TYPE":"PAYLOAD","TIME_SYSTEM":"UTC","MEAN_ELEMENT_THEORY":"SGP4","PERIOD":"95.592","RA_OF_ASC_NODE":"13.1328","SEMIMAJOR_AXIS":"6925.347","MEAN_MOTION":"15.06400485","TLE_LINE1":"1 48656U 21044U   21234.80161937 -.00000819  00000-0 -36130-4 0  9994","CENTER_NAME":"EARTH","PERIAPSIS":"546.401","BSTAR":"-0.00003613000000","INCLINATION":"53.0566","RCS_SIZE":"LARGE","ELEMENT_SET_NO":"999","MEAN_MOTION_DOT":"-0.00000819","TLE_LINE2":"2 48656  53.0566  13.1328 0001171 120.9158 239.1946 15.06400485 13528","GP_ID":"183273315","OBJECT_ID":"2021-044U","DECAY_DATE":null,"EPHEMERIS_TYPE":"0","COUNTRY_CODE":"US","REV_AT_EPOCH":"1352","MEAN_ANOMALY":"239.1946"},{"TLE_LINE2":"2 48657  53.0566  13.1493 0001223 128.0300 232.0800 15.06396719 13523","MEAN_MOTION_DOT":"-0.00001185","ELEMENT_SET_NO":"999","RCS_SIZE":"LARGE","GP_ID":"183273135","OBJECT_ID":"2021-044V","DECAY_DATE":null,"REV_AT_EPOCH":"1352","MEAN_ANOMALY":"232.0800","EPHEMERIS_TYPE":"0","COUNTRY_CODE":"US","MEAN_MOTION":"15.06396719","SEMIMAJOR_AXIS":"6925.359","TLE_LINE1":"1 48657U 21044V   21234.79794764 -.00001185  00000-0 -60669-4 0  9994","CENTER_NAME":"EARTH","INCLINATION":"53.0566","PERIAPSIS":"546.377","BSTAR":"-0.00006066900000","ARG_OF_PERICENTER":"128.0300","NORAD_CAT_ID":"48657","OBJECT_NAME":"STARLINK-2734","TIME_SYSTEM":"UTC","OBJECT_TYPE":"PAYLOAD","APOAPSIS":"548.071","RA_OF_ASC_NODE":"13.1493","MEAN_ELEMENT_THEORY":"SGP4","PERIOD":"95.592","EPOCH":"2021-08-22T19:09:02.676096","SITE":"AFETR","REF_FRAME":"TEME","MEAN_MOTION_DDOT":"0.0000000000000","FILE":"3101563","CLASSIFICATION_TYPE":"U","LAUNCH_DATE":"2021-05-26","ECCENTRICITY":"0.00012230"},{"COUNTRY_CODE":"US","EPHEMERIS_TYPE":"0","REV_AT_EPOCH":"1353","MEAN_ANOMALY":"250.8511","DECAY_DATE":null,"GP_ID":"183273405","OBJECT_ID":"2021-044W","ELEMENT_SET_NO":"999","RCS_SIZE":"LARGE","MEAN_MOTION_DOT":"0.00000731","TLE_LINE2":"2 48658  53.0577  12.8724 0001323 109.2621 250.8511 15.06400289 13533","BSTAR":"0.00006796200000","PERIAPSIS":"546.296","INCLINATION":"53.0577","CENTER_NAME":"EARTH","TLE_LINE1":"1 48658U 21044W   21234.86059807  .00000731  00000-0  67962-4 0  9992","SEMIMAJOR_AXIS":"6925.348","MEAN_MOTION":"15.06400289","MEAN_ELEMENT_THEORY":"SGP4","PERIOD":"95.592","RA_OF_ASC_NODE":"12.8724","APOAPSIS":"548.129","OBJECT_TYPE":"PAYLOAD","TIME_SYSTEM":"UTC","NORAD_CAT_ID":"48658","OBJECT_NAME":"STARLINK-2647","ARG_OF_PERICENTER":"109.2621","LAUNCH_DATE":"2021-05-26","ECCENTRICITY":"0.00013230","CLASSIFICATION_TYPE":"U","FILE":"3101563","MEAN_MOTION_DDOT":"0.0000000000000","REF_FRAME":"TEME","EPOCH":"2021-08-22T20:39:15.673248","SITE":"AFETR"},{"CLASSIFICATION_TYPE":"U","LAUNCH_DATE":"2021-05-26","ECCENTRICITY":"0.00012020","EPOCH":"2021-08-22T20:33:56.848608","SITE":"AFETR","MEAN_MOTION_DDOT":"0.0000000000000","REF_FRAME":"TEME","FILE":"3101563","RA_OF_ASC_NODE":"12.8862","MEAN_ELEMENT_THEORY":"SGP4","PERIOD":"95.592","ARG_OF_PERICENTER":"129.0743","OBJECT_NAME":"STARLINK-2717","NORAD_CAT_ID":"48659","TIME_SYSTEM":"UTC","OBJECT_TYPE":"PAYLOAD","APOAPSIS":"548.030","CENTER_NAME":"EARTH","BSTAR":"0.00006891600000","PERIAPSIS":"546.365","INCLINATION":"53.0571","MEAN_MOTION":"15.06405249","SEMIMAJOR_AXIS":"6925.332","TLE_LINE1":"1 48659U 21044X   21234.85690797  .00000745  00000-0  68916-4 0  9996","DECAY_DATE":null,"REV_AT_EPOCH":"1353","MEAN_ANOMALY":"231.0353","COUNTRY_CODE":"US","EPHEMERIS_TYPE":"0","TLE_LINE2":"2 48659  53.0571  12.8862 0001202 129.0743 231.0353 15.06405249 13538","MEAN_MOTION_DOT":"0.00000745","ELEMENT_SET_NO":"999","RCS_SIZE":"LARGE","GP_ID":"183273579","OBJECT_ID":"2021-044X"},{"CLASSIFICATION_TYPE":"U","LAUNCH_DATE":"2021-05-26","ECCENTRICITY":"0.00012470","FILE":"3101563","EPOCH":"2021-08-22T20:28:38.776512","SITE":"AFETR","MEAN_MOTION_DDOT":"0.0000000000000","REF_FRAME":"TEME","RA_OF_ASC_NODE":"12.9017","MEAN_ELEMENT_THEORY":"SGP4","PERIOD":"95.593","OBJECT_TYPE":"PAYLOAD","TIME_SYSTEM":"UTC","APOAPSIS":"548.096","ARG_OF_PERICENTER":"118.3093","OBJECT_NAME":"STARLINK-2688","NORAD_CAT_ID":"48660","BSTAR":"-0.00005480800000","PERIAPSIS":"546.369","INCLINATION":"53.0568","CENTER_NAME":"EARTH","TLE_LINE1":"1 48660U 21044Y   21234.85322658 -.00001097  00000-0 -54808-4 0  9994","MEAN_MOTION":"15.06393714","SEMIMAJOR_AXIS":"6925.368","REV_AT_EPOCH":"1353","MEAN_ANOMALY":"241.8022","EPHEMERIS_TYPE":"0","COUNTRY_CODE":"US","DECAY_DATE":null,"GP_ID":"183273670","OBJECT_ID":"2021-044Y","MEAN_MOTION_DOT":"-0.00001097","TLE_LINE2":"2 48660  53.0568  12.9017 0001247 118.3093 241.8022 15.06393714 13532","ELEMENT_SET_NO":"999","RCS_SIZE":"LARGE"},{"RA_OF_ASC_NODE":"2.6144","MEAN_ELEMENT_THEORY":"SGP4","PERIOD":"95.592","OBJECT_TYPE":"PAYLOAD","TIME_SYSTEM":"UTC","APOAPSIS":"548.114","ARG_OF_PERICENTER":"97.9957","OBJECT_NAME":"STARLINK-2708","NORAD_CAT_ID":"48661","CLASSIFICATION_TYPE":"U","LAUNCH_DATE":"2021-05-26","ECCENTRICITY":"0.00013020","FILE":"3101563","EPOCH":"2021-08-22T22:00:00.999936","SITE":"AFETR","REF_FRAME":"TEME","MEAN_MOTION_DDOT":"0.0000000000000","REV_AT_EPOCH":"358","MEAN_ANOMALY":"241.4069","COUNTRY_CODE":"US","EPHEMERIS_TYPE":"0","DECAY_DATE":null,"GP_ID":"183273490","OBJECT_ID":"2021-044Z","MEAN_MOTION_DOT":"-0.00012882","TLE_LINE2":"2 48661  53.0552   2.6144 0001302  97.9957 241.4069 15.06400374  3588","RCS_SIZE":"LARGE","ELEMENT_SET_NO":"999","BSTAR":"-0.00084750000000","PERIAPSIS":"546.311","INCLINATION":"53.0552","CENTER_NAME":"EARTH","TLE_LINE1":"1 48661U 21044Z   21234.91667824 -.00012882  00000-0 -84750-3 0  9991","MEAN_MOTION":"15.06400374","SEMIMAJOR_AXIS":"6925.347"},{"GP_ID":"183273760","OBJECT_ID":"2021-044AA","TLE_LINE2":"2 48662  53.0549   2.6160 0001264  98.3046 261.1027 15.06398666  3587","MEAN_MOTION_DOT":"-0.00011408","ELEMENT_SET_NO":"999","RCS_SIZE":"LARGE","REV_AT_EPOCH":"358","MEAN_ANOMALY":"261.1027","COUNTRY_CODE":"US","EPHEMERIS_TYPE":"0","DECAY_DATE":null,"TLE_LINE1":"1 48662U 21044AA  21234.91667824 -.00011408  00000-0 -74825-3 0  9997","MEAN_MOTION":"15.06398666","SEMIMAJOR_AXIS":"6925.353","INCLINATION":"53.0549","PERIAPSIS":"546.342","BSTAR":"-0.00074825000000","CENTER_NAME":"EARTH","OBJECT_TYPE":"PAYLOAD","TIME_SYSTEM":"UTC","APOAPSIS":"548.093","ARG_OF_PERICENTER":"98.3046","OBJECT_NAME":"STARLINK-2726","NORAD_CAT_ID":"48662","RA_OF_ASC_NODE":"2.6160","MEAN_ELEMENT_THEORY":"SGP4","PERIOD":"95.592","FILE":"3101563","EPOCH":"2021-08-22T22:00:00.999936","SITE":"AFETR","MEAN_MOTION_DDOT":"0.0000000000000","REF_FRAME":"TEME","CLASSIFICATION_TYPE":"U","LAUNCH_DATE":"2021-05-26","ECCENTRICITY":"0.00012640"},{"CLASSIFICATION_TYPE":"U","ECCENTRICITY":"0.00012330","LAUNCH_DATE":"2021-05-26","FILE":"3101563","SITE":"AFETR","EPOCH":"2021-08-22T22:00:00.999936","MEAN_MOTION_DDOT":"0.0000000000000","REF_FRAME":"TEME","RA_OF_ASC_NODE":"2.6133","PERIOD":"95.592","MEAN_ELEMENT_THEORY":"SGP4","TIME_SYSTEM":"UTC","OBJECT_TYPE":"PAYLOAD","APOAPSIS":"548.071","ARG_OF_PERICENTER":"98.8817","NORAD_CAT_ID":"48663","OBJECT_NAME":"STARLINK-2667","PERIAPSIS":"546.363","BSTAR":"-0.00062585000000","INCLINATION":"53.0538","CENTER_NAME":"EARTH","TLE_LINE1":"1 48663U 21044AB  21234.91667824 -.00009591  00000-0 -62585-3 0  9998","MEAN_MOTION":"15.06398858","SEMIMAJOR_AXIS":"6925.352","MEAN_ANOMALY":"280.5347","REV_AT_EPOCH":"359","EPHEMERIS_TYPE":"0","COUNTRY_CODE":"US","DECAY_DATE":null,"OBJECT_ID":"2021-044AB","GP_ID":"183273226","MEAN_MOTION_DOT":"-0.00009591","TLE_LINE2":"2 48663  53.0538   2.6133 0001233  98.8817 280.5347 15.06398858  3597","RCS_SIZE":"LARGE","ELEMENT_SET_NO":"999"},{"GP_ID":"183273316","OBJECT_ID":"2021-044AC","TLE_LINE2":"2 48664  53.0546   2.6154 0001259  90.1809 309.2314 15.06396005  3599","MEAN_MOTION_DOT":"-0.00007561","ELEMENT_SET_NO":"999","RCS_SIZE":"LARGE","REV_AT_EPOCH":"359","MEAN_ANOMALY":"309.2314","EPHEMERIS_TYPE":"0","COUNTRY_CODE":"US","DECAY_DATE":null,"TLE_LINE1":"1 48664U 21044AC  21234.91667824 -.00007561  00000-0 -48931-3 0  9993","MEAN_MOTION":"15.06396005","SEMIMAJOR_AXIS":"6925.361","PERIAPSIS":"546.354","BSTAR":"-0.00048931000000","INCLINATION":"53.0546","CENTER_NAME":"EARTH","TIME_SYSTEM":"UTC","OBJECT_TYPE":"PAYLOAD","APOAPSIS":"548.098","ARG_OF_PERICENTER":"90.1809","OBJECT_NAME":"STARLINK-2709","NORAD_CAT_ID":"48664","RA_OF_ASC_NODE":"2.6154","MEAN_ELEMENT_THEORY":"SGP4","PERIOD":"95.592","FILE":"3101563","EPOCH":"2021-08-22T22:00:00.999936","SITE":"AFETR","REF_FRAME":"TEME","MEAN_MOTION_DDOT":"0.0000000000000","CLASSIFICATION_TYPE":"U","LAUNCH_DATE":"2021-05-26","ECCENTRICITY":"0.00012590"},{"EPHEMERIS_TYPE":"0","COUNTRY_CODE":"US","MEAN_ANOMALY":"231.1896","REV_AT_EPOCH":"358","DECAY_DATE":null,"OBJECT_ID":"2021-044AD","GP_ID":"183273136","RCS_SIZE":"LARGE","ELEMENT_SET_NO":"999","TLE_LINE2":"2 48665  53.0544   2.6146 0001193  93.3397 231.1896 15.06391824  3584","MEAN_MOTION_DOT":"-0.00013192","BSTAR":"-0.00086859000000","PERIAPSIS":"546.412","INCLINATION":"53.0544","CENTER_NAME":"EARTH","TLE_LINE1":"1 48665U 21044AD  21234.91667824 -.00013192  00000-0 -86859-3 0  9992","SEMIMAJOR_AXIS":"6925.374","MEAN_MOTION":"15.06391824","PERIOD":"95.593","MEAN_ELEMENT_THEORY":"SGP4","RA_OF_ASC_NODE":"2.6146","APOAPSIS":"548.065","TIME_SYSTEM":"UTC","OBJECT_TYPE":"PAYLOAD","OBJECT_NAME":"STARLINK-2653","NORAD_CAT_ID":"48665","ARG_OF_PERICENTER":"93.3397","ECCENTRICITY":"0.00011930","LAUNCH_DATE":"2021-05-26","CLASSIFICATION_TYPE":"U","FILE":"3101563","REF_FRAME":"TEME","MEAN_MOTION_DDOT":"0.0000000000000","SITE":"AFETR","EPOCH":"2021-08-22T22:00:00.999936"}];
